[{"OBJECT_NAME":"STARLINK-36993","OBJECT_ID":"2026-039J","EPOCH":"2026-03-07T04:00:03.000096","MEAN_MOTION":15.92852923,"ECCENTRICITY":0.0001803,"INCLINATION":42.9973,"RA_OF_ASC_NODE":70.4802,"ARG_OF_PERICENTER":271.0991,"MEAN_ANOMALY":115.765,"EPHEMERIS_TYPE":0,"CLASSIFICATION_TYPE":"U","NORAD_CAT_ID":67994,"ELEMENT_SET_NO":999,"REV_AT_EPOCH":247,"BSTAR":-0.0046573,"MEAN_MOTION_DOT":-0.01667606,"MEAN_MOTION_DDOT":0.00077751},{"OBJECT_NAME":"STARLINK-36968","OBJECT_ID":"2026-039K","EPOCH":"2026-03-07T04:00:03.000096","MEAN_MOTION":15.93094531,"ECCENTRICITY":0.0001831,"INCLINATION":42.9973,"RA_OF_ASC_NODE":70.464,"ARG_OF_PERICENTER":270.5021,"MEAN_ANOMALY":122.6859,"EPHEMERIS_TYPE":0,"CLASSIFICATION_TYPE":"U","NORAD_CAT_ID":67995,"ELEMENT_SET_NO":999,"REV_AT_EPOCH":247,"BSTAR":-0.0046554,"MEAN_MOTION_DOT":-0.01688015,"MEAN_MOTION_DDOT":0.00079706},{"OBJECT_NAME":"STARLINK-36979","OBJECT_ID":"2026-039L","EPOCH":"2026-03-07T04:00:03.000096","MEAN_MOTION":15.92947181,"ECCENTRICITY":0.0001772,"INCLINATION":42.997,"RA_OF_ASC_NODE":70.47,"ARG_OF_PERICENTER":269.868,"MEAN_ANOMALY":120.8731,"EPHEMERIS_TYPE":0,"CLASSIFICATION_TYPE":"U","NORAD_CAT_ID":67996,"ELEMENT_SET_NO":999,"REV_AT_EPOCH":247,"BSTAR":-0.004685,"MEAN_MOTION_DOT":-0.01685646,"MEAN_MOTION_DDOT":0.00079384},{"OBJECT_NAME":"STARLINK-36994","OBJECT_ID":"2026-039M","EPOCH":"2026-03-07T04:00:03.000096","MEAN_MOTION":15.93376169,"ECCENTRICITY":0.0001538,"INCLINATION":42.9972,"RA_OF_ASC_NODE":70.4504,"ARG_OF_PERICENTER":264.5823,"MEAN_ANOMALY":133.8971,"EPHEMERIS_TYPE":0,"CLASSIFICATION_TYPE":"U","NORAD_CAT_ID":67997,"ELEMENT_SET_NO":999,"REV_AT_EPOCH":247,"BSTAR":-0.004605,"MEAN_MOTION_DOT":-0.01694597,"MEAN_MOTION_DDOT":0.00080505},{"OBJECT_NAME":"STARLINK-36988","OBJECT_ID":"2026-039N","EPOCH":"2026-03-07T04:00:03.000096","MEAN_MOTION":15.93232567,"ECCENTRICITY":0.0001749,"INCLINATION":42.9973,"RA_OF_ASC_NODE":70.4567,"ARG_OF_PERICENTER":269.204,"MEAN_ANOMALY":126.7993,"EPHEMERIS_TYPE":0,"CLASSIFICATION_TYPE":"U","NORAD_CAT_ID":67998,"ELEMENT_SET_NO":999,"REV_AT_EPOCH":247,"BSTAR":-0.0046363,"MEAN_MOTION_DOT":-0.01693295,"MEAN_MOTION_DDOT":0.00080276},{"OBJECT_NAME":"STARLINK-36926","OBJECT_ID":"2026-039P","EPOCH":"2026-03-07T04:00:03.000096","MEAN_MOTION":15.93518864,"ECCENTRICITY":0.0001659,"INCLINATION":42.9972,"RA_OF_ASC_NODE":70.4443,"ARG_OF_PERICENTER":269.8956,"MEAN_ANOMALY":131.1518,"EPHEMERIS_TYPE":0,"CLASSIFICATION_TYPE":"U","NORAD_CAT_ID":67999,"ELEMENT_SET_NO":999,"REV_AT_EPOCH":247,"BSTAR":-0.0045683,"MEAN_MOTION_DOT":-0.0169387,"MEAN_MOTION_DDOT":0.00080555},{"OBJECT_NAME":"STARLINK-36931","OBJECT_ID":"2026-039Q","EPOCH":"2026-03-07T04:00:03.000096","MEAN_MOTION":15.93661458,"ECCENTRICITY":0.0001698,"INCLINATION":42.9973,"RA_OF_ASC_NODE":70.439,"ARG_OF_PERICENTER":268.0149,"MEAN_ANOMALY":135.1329,"EPHEMERIS_TYPE":0,"CLASSIFICATION_TYPE":"U","NORAD_CAT_ID":68000,"ELEMENT_SET_NO":999,"REV_AT_EPOCH":247,"BSTAR":-0.0045089,"MEAN_MOTION_DOT":-0.01684657,"MEAN_MOTION_DDOT":0.00079861},{"OBJECT_NAME":"STARLINK-36903","OBJECT_ID":"2026-039R","EPOCH":"2026-03-07T04:00:03.000096","MEAN_MOTION":15.93794294,"ECCENTRICITY":0.0001731,"INCLINATION":42.9975,"RA_OF_ASC_NODE":70.4323,"ARG_OF_PERICENTER":270.752,"MEAN_ANOMALY":135.0223,"EPHEMERIS_TYPE":0,"CLASSIFICATION_TYPE":"U","NORAD_CAT_ID":68001,"ELEMENT_SET_NO":999,"REV_AT_EPOCH":247,"BSTAR":-0.0044592,"MEAN_MOTION_DOT":-0.01677967,"MEAN_MOTION_DDOT":0.00079382},{"OBJECT_NAME":"STARLINK-36898","OBJECT_ID":"2026-039S","EPOCH":"2026-03-07T04:00:03.000096","MEAN_MOTION":15.9406844,"ECCENTRICITY":0.0001751,"INCLINATION":42.9974,"RA_OF_ASC_NODE":70.4194,"ARG_OF_PERICENTER":273.1044,"MEAN_ANOMALY":137.6312,"EPHEMERIS_TYPE":0,"CLASSIFICATION_TYPE":"U","NORAD_CAT_ID":68002,"ELEMENT_SET_NO":999,"REV_AT_EPOCH":247,"BSTAR":-0.004378,"MEAN_MOTION_DOT":-0.01671736,"MEAN_MOTION_DDOT":0.00079055},{"OBJECT_NAME":"STARLINK-36862","OBJECT_ID":"2026-039T","EPOCH":"2026-03-07T04:00:03.000096","MEAN_MOTION":15.9434356,"ECCENTRICITY":0.000174,"INCLINATION":42.9974,"RA_OF_ASC_NODE":70.4077,"ARG_OF_PERICENTER":272.3551,"MEAN_ANOMALY":143.0236,"EPHEMERIS_TYPE":0,"CLASSIFICATION_TYPE":"U","NORAD_CAT_ID":68003,"ELEMENT_SET_NO":999,"REV_AT_EPOCH":247,"BSTAR":-0.0043014,"MEAN_MOTION_DOT":-0.01666833,"MEAN_MOTION_DDOT":0.00078845},{"OBJECT_NAME":"STARLINK-36888","OBJECT_ID":"2026-039U","EPOCH":"2026-03-07T04:00:03.000096","MEAN_MOTION":15.93930182,"ECCENTRICITY":0.0001703,"INCLINATION":42.9975,"RA_OF_ASC_NODE":70.4263,"ARG_OF_PERICENTER":273.7298,"MEAN_ANOMALY":134.453,"EPHEMERIS_TYPE":0,"CLASSIFICATION_TYPE":"U","NORAD_CAT_ID":68004,"ELEMENT_SET_NO":999,"REV_AT_EPOCH":247,"BSTAR":-0.0044125,"MEAN_MOTION_DOT":-0.01672489,"MEAN_MOTION_DDOT":0.00079011},{"OBJECT_NAME":"STARLINK-36910","OBJECT_ID":"2026-039V","EPOCH":"2026-03-07T04:00:03.000096","MEAN_MOTION":15.94208008,"ECCENTRICITY":0.0001737,"INCLINATION":42.9973,"RA_OF_ASC_NODE":70.4133,"ARG_OF_PERICENTER":274.5128,"MEAN_ANOMALY":138.6738,"EPHEMERIS_TYPE":0,"CLASSIFICATION_TYPE":"U","NORAD_CAT_ID":68005,"ELEMENT_SET_NO":999,"REV_AT_EPOCH":247,"BSTAR":-0.00436,"MEAN_MOTION_DOT":-0.0167723,"MEAN_MOTION_DDOT":0.00079647},{"OBJECT_NAME":"STARLINK-36889","OBJECT_ID":"2026-039W","EPOCH":"2026-03-07T04:00:03.000096","MEAN_MOTION":15.94474344,"ECCENTRICITY":0.0001712,"INCLINATION":42.9974,"RA_OF_ASC_NODE":70.4014,"ARG_OF_PERICENTER":276.7578,"MEAN_ANOMALY":140.9208,"EPHEMERIS_TYPE":0,"CLASSIFICATION_TYPE":"U","NORAD_CAT_ID":68006,"ELEMENT_SET_NO":999,"REV_AT_EPOCH":247,"BSTAR":-0.004233,"MEAN_MOTION_DOT":-0.01652054,"MEAN_MOTION_DDOT":0.00077662},{"OBJECT_NAME":"STARLINK-36592","OBJECT_ID":"2026-039X","EPOCH":"2026-03-07T04:00:03.000096","MEAN_MOTION":15.94636733,"ECCENTRICITY":0.0001694,"INCLINATION":42.9972,"RA_OF_ASC_NODE":70.3962,"ARG_OF_PERICENTER":275.0956,"MEAN_ANOMALY":144.8636,"EPHEMERIS_TYPE":0,"CLASSIFICATION_TYPE":"U","NORAD_CAT_ID":68007,"ELEMENT_SET_NO":999,"REV_AT_EPOCH":247,"BSTAR":-0.0043264,"MEAN_MOTION_DOT":-0.01702601,"MEAN_MOTION_DDOT":0.00082241},{"OBJECT_NAME":"STARLINK-36911","OBJECT_ID":"2026-039Y","EPOCH":"2026-03-07T04:00:03.000096","MEAN_MOTION":15.94745269,"ECCENTRICITY":0.0001791,"INCLINATION":42.9974,"RA_OF_ASC_NODE":70.3901,"ARG_OF_PERICENTER":273.1866,"MEAN_ANOMALY":149.1847,"EPHEMERIS_TYPE":0,"CLASSIFICATION_TYPE":"U","NORAD_CAT_ID":68008,"ELEMENT_SET_NO":999,"REV_AT_EPOCH":247,"BSTAR":-0.0041625,"MEAN_MOTION_DOT":-0.01648388,"MEAN_MOTION_DDOT":0.00077556},{"OBJECT_NAME":"STARLINK-36956","OBJECT_ID":"2026-039Z","EPOCH":"2026-03-07T04:00:03.000096","MEAN_MOTION":15.94879699,"ECCENTRICITY":0.0001626,"INCLINATION":42.9972,"RA_OF_ASC_NODE":70.3841,"ARG_OF_PERICENTER":271.7765,"MEAN_ANOMALY":152.8923,"EPHEMERIS_TYPE":0,"CLASSIFICATION_TYPE":"U","NORAD_CAT_ID":68009,"ELEMENT_SET_NO":999,"REV_AT_EPOCH":247,"BSTAR":-0.004124,"MEAN_MOTION_DOT":-0.01645,"MEAN_MOTION_DDOT":0.00077367}]
